NORAD_CAT_ID,OBJECT_NAME,OBJECT_TYPE,EPOCH,MEAN_MOTION,ECCENTRICITY,INCLINATION,RA_OF_ASC_NODE,ARG_OF_PERICENTER,MEAN_ANOMALY,BSTAR,MEAN_MOTION_DOT,MEAN_MOTION_DDOT,TLE_LINE0,TLE_LINE1,TLE_LINE2,SEMIMAJOR_AXIS,PERIOD,APOGEE,PERIGEE,DECAYED
52488.0,STARLINK-3892,PAYLOAD,2022-09-09 22:00:00,15.08844245,0.0001606,53.2184,30.7682,55.5964,22.4679,-0.00098492,-0.00015931,0.0,0 STARLINK-3892,1 52488U 22049AP  22252.91667824 -.00015931  00000-0 -98492-3 0  9996,2 52488  53.2184  30.7682 0001606  55.5964  22.4679 15.08844245  1300,6917.8669999999975,95.437,540.8430000000002,538.621,0.0
52488.0,STARLINK-3892,PAYLOAD,2022-09-10 06:00:02,15.08807779,0.0001443,53.2185,29.2701,62.8482,26.878,0.0033084,0.00052712,0.0,0 STARLINK-3892,1 52488U 22049AP  22253.25002315  .00052712  00000-0  33084-2 0  9993,2 52488  53.2185  29.2701 0001443  62.8482  26.8780 15.08807779 19717,6917.979,95.44,540.842,538.846,0.0
52488.0,STARLINK-3892,PAYLOAD,2022-09-10 14:00:01,15.08857918,0.0001567,53.2187,27.7752,58.9523,42.2987,-0.001138,-0.00018362,0.0,0 STARLINK-3892,1 52488U 22049AP  22253.58334491 -.00018362  00000-0 -11380-2 0  9992,2 52488  53.2187  27.7752 0001567  58.9523  42.2987 15.08857918  1304,6917.826,95.436,540.775,538.607,0.0
52488.0,STARLINK-3892,PAYLOAD,2022-09-10 22:00:00,15.08849508,0.0001554,53.2186,26.2791,51.8015,61.0493,-0.0012697,-0.00020444,0.0,0 STARLINK-3892,1 52488U 22049AP  22253.91667824 -.00020444  00000-0 -12697-2 0  9994,2 52488  53.2186  26.2791 0001554  51.8015  61.0493 15.08849508 19816,6917.851,95.437,540.7909999999998,538.641,0.0
52488.0,STARLINK-3892,PAYLOAD,2022-09-11 14:00:01,15.08869855,0.0001597,53.2191,23.2863,55.6301,80.4169,-0.0023976999999999,-0.00038276,0.0,0 STARLINK-3892,1 52488U 22049AP  22254.58334491 -.00038276  00000-0 -23977-2 0  9994,2 52488  53.2191  23.2863 0001597  55.6301  80.4169 15.08869855 19919,6917.7890000000025,95.436,540.759,538.549,0.0
52488.0,STARLINK-3892,PAYLOAD,2022-09-11 22:00:00,15.08855106,0.0001726,53.2191,21.7902,52.7132,94.9443,-0.0029078,-0.00046288,0.0,0 STARLINK-3892,1 52488U 22049AP  22254.91667824 -.00046288  00000-0 -29078-2 0  9990,2 52488  53.2191  21.7902 0001726  52.7132  94.9443 15.08855106  1303,6917.834,95.437,540.893,538.505,0.0
52488.0,STARLINK-3892,PAYLOAD,2022-09-12 12:00:00,15.08849082,0.0001583,53.2189,19.1717,55.0139,22.9261,-0.0016518,-0.00026487,0.0,0 STARLINK-3892,1 52488U 22049AP  22255.50001157 -.00026487  00000-0 -16518-2 0  9991,2 52488  53.2189  19.1717 0001583  55.0139  22.9261 15.08849082 20057,6917.853,95.437,540.813,538.623,0.0
52488.0,STARLINK-3892,PAYLOAD,2022-09-12 14:00:01,15.08871817,0.0001657,53.2187,18.7985,53.1867,117.6478,-0.0061666,-0.00097193,0.0,0 STARLINK-3892,1 52488U 22049AP  22255.58334491 -.00097193  00000-0 -61666-2 0  9995,2 52488  53.2187  18.7985 0001657  53.1867 117.6478 15.08871817  1306,6917.783,95.436,540.794,538.502,0.0
52488.0,STARLINK-3892,PAYLOAD,2022-09-12 22:00:00,15.08862339,0.0001608,53.2197,17.3015,47.3565,135.0756,-0.0025773,-0.00041097,0.0,0 STARLINK-3892,1 52488U 22049AP  22255.91667824 -.00041097  00000-0 -25773-2 0  9992,2 52488  53.2197  17.3015 0001608  47.3565 135.0756 15.08862339  1304,6917.812,95.436,540.789,538.565,0.0
52488.0,STARLINK-3892,PAYLOAD,2022-09-13 06:00:00,15.08816288,0.0001419,53.22,15.8037,52.2369,141.8039,0.0034306,0.00054698,0.0,0 STARLINK-3892,1 52488U 22049AP  22256.25001157  .00054698  00000-0  34306-2 0  9992,2 52488  53.2200  15.8037 0001419  52.2369 141.8039 15.08816288 20169,6917.953,95.439,540.8,538.836,0.0
52488.0,STARLINK-3892,PAYLOAD,2022-09-13 14:00:01,15.08862005,0.0001563,53.2201,14.3091,46.3362,159.2953,-0.0030616,-0.00048713,0.0,0 STARLINK-3892,1 52488U 22049AP  22256.58334491 -.00048713  00000-0 -30616-2 0  9991,2 52488  53.2201  14.3091 0001563  46.3362 159.2953 15.08862005  1302,6917.813,95.436,540.759,538.597,0.0
52488.0,STARLINK-3892,PAYLOAD,2022-09-13 16:00:00,15.08841923,0.0001628,53.2198,13.9359,45.144,253.394,-0.0010482,-0.00016932,0.0,0 STARLINK-3892,1 52488U 22049AP  22256.66667824 -.00016932  00000-0 -10482-2 0  9996,2 52488  53.2198  13.9359 0001628  45.1440 253.3940 15.08841923 20236,6917.875,95.437,540.866,538.613,0.0
52488.0,STARLINK-3892,PAYLOAD,2022-09-13 22:00:00,15.08840298,0.0001564,53.22,12.8127,43.8802,173.3336,-0.0028622,-0.00045552,0.0,0 STARLINK-3892,1 52488U 22049AP  22256.91667824 -.00045552  00000-0 -28622-2 0  9999,2 52488  53.2200  12.8127 0001564  43.8802 173.3336 15.08840298  1308,6917.879,95.438,540.826,538.663,0.0
52488.0,STARLINK-3892,PAYLOAD,2022-09-14 14:00:01,15.0882846,0.0001621,53.2202,9.8206,47.2683,193.0939,-3.303e-05,-8.13e-06,0.0,0 STARLINK-3892,1 52488U 22049AP  22257.58334491 -.00000813  00000-0 -33030-4 0  9996,2 52488  53.2202   9.8206 0001621  47.2683 193.0939 15.08828460  1308,6917.916,95.438,540.9019999999998,538.659,0.0
52488.0,STARLINK-3892,PAYLOAD,2022-09-14 22:00:00,15.08861099,0.0001625,53.2197,8.3241,46.2368,205.7,-0.0041607,-0.00065938,0.0,0 STARLINK-3892,1 52488U 22049AP  22257.91667824 -.00065938  00000-0 -41607-2 0  9998,2 52488  53.2197   8.3241 0001625  46.2368 205.7000 15.08861099 20415,6917.816,95.436,540.805,538.557,0.0
52488.0,STARLINK-3892,PAYLOAD,2022-09-15 06:00:00,15.08803711,0.0001525,53.218,6.8269,45.9838,217.5694,0.0026791999999999,0.00042567,0.0,0 STARLINK-3892,1 52488U 22049AP  22258.25001157  .00042567  00000-0  26792-2 0  9996,2 52488  53.2180   6.8269 0001525  45.9838 217.5694 15.08803711 20470,6917.991,95.44,540.911,538.8009999999998,0.0
52488.0,STARLINK-3892,PAYLOAD,2022-09-15 14:00:01,15.08845828,0.0001602,53.2199,5.332000000000002,45.9733,229.1759,-0.001415,-0.00022741,0.0,0 STARLINK-3892,1 52488U 22049AP  22258.58334491 -.00022741  00000-0 -14150-2 0  9991,2 52488  53.2199   5.3320 0001602  45.9733 229.1759 15.08845828  1309,6917.863,95.437,540.836,538.619,0.0
52488.0,STARLINK-3892,PAYLOAD,2022-09-15 15:57:54,15.08841986,0.0001573,53.2208,4.9628,50.3065,309.8065,6.795e-05,7.94e-06,0.0,0 STARLINK-3892,1 52488U 22049AP  22258.66521272  .00000794  00000-0  67950-4 0  9995,2 52488  53.2208   4.9628 0001573  50.3065 309.8065 15.08841986 20376,6917.874,95.437,540.828,538.651,0.0
52488.0,STARLINK-3892,PAYLOAD,2022-09-15 23:54:50,15.08833305,0.0001809,53.2213,3.4767,54.633,305.4831,-3.6322e-05,-8.66e-06,0.0,0 STARLINK-3892,1 52488U 22049AP  22258.99642358 -.00000866  00000-0 -36322-4 0  9991,2 52488  53.2213   3.4767 0001809  54.6330 305.4831 15.08833305 20586,6917.901,95.438,541.0169999999998,538.514,0.0
52488.0,STARLINK-3892,PAYLOAD,2022-09-16 11:02:32,15.08836888,0.0001529,53.2205,1.3946,47.9374,312.1748,0.00010047,1.311e-05,0.0,0 STARLINK-3892,1 52488U 22049AP  22259.46009745  .00001311  00000-0  10047-3 0  9990,2 52488  53.2205   1.3946 0001529  47.9374 312.1748 15.08836888 20654,6917.89,95.438,540.813,538.697,0.0
52488.0,STARLINK-3892,PAYLOAD,2022-09-16 15:48:42,15.0882465,0.000153,53.2207,0.5029,52.3802,307.7329,-4.3201e-06,-3.57e-06,0.0,0 STARLINK-3892,1 52488U 22049AP  22259.65882964 -.00000357  00000-0 -43201-5 0  9994,2 52488  53.2207   0.5029 0001530  52.3802 307.7329 15.08824650 20689,6917.927,95.439,540.851,538.734,0.0
52488.0,STARLINK-3892,PAYLOAD,2022-09-17 12:28:44,15.08823158,0.0001764999999999,53.2216,356.6395,52.1981,307.9171,-9.5969e-05,-1.814e-05,0.0,0 STARLINK-3892,1 52488U 22049AP  22260.51996126 -.00001814  00000-0 -95969-4 0  9993,2 52488  53.2216 356.6395 0001765  52.1981 307.9171 15.08823158 20652,6917.932,95.439,541.018,538.576,0.0
52488.0,STARLINK-3892,PAYLOAD,2022-09-17 15:39:30,15.08826113,0.0001747,53.2213,356.0443,49.3186,310.7958,-4.8439e-05,-1.059e-05,0.0,0 STARLINK-3892,1 52488U 22049AP  22260.65243889 -.00001059  00000-0 -48439-4 0  9990,2 52488  53.2213 356.0443 0001747  49.3186 310.7958 15.08826113 20673,6917.9230000000025,95.438,540.996,538.5790000000002,0.0
52488.0,STARLINK-3892,PAYLOAD,2022-09-18 12:19:30,15.08843025,0.0001948,53.2215,352.1797,56.1139,304.0038,-5.7439e-05,-1.202e-05,0.0,0 STARLINK-3892,1 52488U 22049AP  22261.51355285 -.00001202  00000-0 -57439-4 0  9990,2 52488  53.2215 352.1797 0001948  56.1139 304.0038 15.08843025 20802,6917.871,95.437,541.0840000000002,538.389,0.0
52488.0,STARLINK-3892,PAYLOAD,2022-09-18 15:30:16,15.08846817,0.0001953,53.2209,351.584,57.274,302.844,1.4314e-05,-6e-07,0.0,0 STARLINK-3892,1 52488U 22049AP  22261.64602792 -.00000060  00000-0  14314-4 0  9997,2 52488  53.2209 351.5840 0001953  57.2740 302.8440 15.08846817 20987,6917.86,95.437,541.076,538.373,0.0
52488.0,STARLINK-3892,PAYLOAD,2022-09-19 12:10:17,15.08837667,0.0001665,53.2206,347.7178,47.3421,312.7711,0.00016708,2.372e-05,0.0,0 STARLINK-3892,1 52488U 22049AP  22262.50714759  .00002372  00000-0  16708-3 0  9995,2 52488  53.2206 347.7178 0001665  47.3421 312.7711 15.08837667 20952,6917.888000000001,95.438,540.904,538.601,0.0
52488.0,STARLINK-3892,PAYLOAD,2022-09-19 15:21:03,15.08842871,0.0001709,53.2205,347.1232,46.6694,313.444,0.00015059,2.11e-05,0.0,0 STARLINK-3892,1 52488U 22049AP  22262.63962485  .00002110  00000-0  15059-3 0  9998,2 52488  53.2205 347.1232 0001709  46.6694 313.4440 15.08842871 20971,6917.871999999999,95.437,540.919,538.554,0.0
52488.0,STARLINK-3892,PAYLOAD,2022-09-19 23:17:59,15.08845277,0.0001916999999999,53.2207,345.6366,45.727,314.3879,0.00013007,1.783e-05,0.0,0 STARLINK-3892,1 52488U 22049AP  22262.97082338  .00001783  00000-0  13007-3 0  9991,2 52488  53.2207 345.6366 0001917  45.7270 314.3879 15.08845277 21188,6917.864000000001,95.437,541.055,538.403,0.0
52488.0,STARLINK-3892,PAYLOAD,2022-09-20 12:01:04,15.08847897,0.0001654,53.2208,343.2579,47.9343,312.1790000000001,-8.5378e-06,-4.24e-06,0.0,0 STARLINK-3892,1 52488U 22049AP  22263.50074387 -.00000424  00000-0 -85378-5 0  9991,2 52488  53.2208 343.2579 0001654  47.9343 312.1790 15.08847897 21102,6917.856,95.437,540.865,538.577,0.0
